NORAD_CAT_ID,OBJECT_NAME,OBJECT_TYPE,EPOCH,MEAN_MOTION,ECCENTRICITY,INCLINATION,RA_OF_ASC_NODE,ARG_OF_PERICENTER,MEAN_ANOMALY,BSTAR,MEAN_MOTION_DOT,MEAN_MOTION_DDOT,TLE_LINE0,TLE_LINE1,TLE_LINE2,SEMIMAJOR_AXIS,PERIOD,APOGEE,PERIGEE,DECAYED
52858.0,STARLINK-4198,PAYLOAD,2022-10-15 14:00:01,15.08820432,0.0001585999999999,53.2158,195.6563,60.33600000000001,125.4077,0.0022456,0.00035613,0.0,0 STARLINK-4198,1 52858U 22062AE  22288.58334491  .00035613  00000-0  22456-2 0  9998,2 52858  53.2158 195.6563 0001586  60.3360 125.4077 15.08820432  1300,6917.94,95.439,540.9019999999998,538.7080000000002,0.0
52858.0,STARLINK-4198,PAYLOAD,2022-10-15 22:00:01,15.08836069,0.0001773,53.2152,194.1611,60.5215,136.8662,-0.00058732,-9.622e-05,0.0,0 STARLINK-4198,1 52858U 22062AE  22288.91668981 -.00009622  00000-0 -58732-3 0  9999,2 52858  53.2152 194.1611 0001773  60.5215 136.8662 15.08836069  1300,6917.892,95.438,540.984,538.531,0.0
52858.0,STARLINK-4198,PAYLOAD,2022-10-16 14:00:01,15.08802196,0.0001641,53.2154,191.1674,60.4804,160.0179,0.0038808999999999,0.00061956,0.0,0 STARLINK-4198,1 52858U 22062AE  22289.58334491  .00061956  00000-0  38809-2 0  9997,2 52858  53.2154 191.1674 0001641  60.4804 160.0179 15.08802196 19209,6917.996,95.44,540.996,538.726,0.0
52858.0,STARLINK-4198,PAYLOAD,2022-10-16 22:00:00,15.08866688,0.0001706,53.2161,189.6722,59.3479,172.7231,-0.0033542999999999,-0.00053316,0.0,0 STARLINK-4198,1 52858U 22062AE  22289.91667824 -.00053316  00000-0 -33543-2 0  9996,2 52858  53.2161 189.6722 0001706  59.3479 172.7231 15.08866688  1307,6917.799,95.436,540.844,538.484,0.0
52858.0,STARLINK-4198,PAYLOAD,2022-10-17 06:00:00,15.0882145,0.0001719,53.2155,188.1762,52.9525,190.7119,0.001827,0.00028894,0.0,0 STARLINK-4198,1 52858U 22062AE  22290.25001157  .00028894  00000-0  18270-2 0  9997,2 52858  53.2155 188.1762 0001719  52.9525 190.7119 15.08821450 19305,6917.937,95.439,540.991,538.613,0.0
52858.0,STARLINK-4198,PAYLOAD,2022-10-17 14:00:01,15.0882988,0.0001498,53.2158,186.678,60.235,195.0358,0.0010904999999999,0.00017105,0.0,0 STARLINK-4198,1 52858U 22062AE  22290.58334491  .00017105  00000-0  10905-2 0  9993,2 52858  53.2158 186.6780 0001498  60.2350 195.0358 15.08829880  1302,6917.911,95.438,540.813,538.74,0.0
52858.0,STARLINK-4198,PAYLOAD,2022-10-17 22:00:00,15.08851431,0.0001554999999999,53.2163,185.1832,56.0759,210.7876,-0.00041706,-6.922e-05,0.0,0 STARLINK-4198,1 52858U 22062AE  22290.91667824 -.00006922  00000-0 -41706-3 0  9990,2 52858  53.2163 185.1832 0001555  56.0759 210.7876 15.08851431  1307,6917.845,95.437,540.786,538.635,0.0
52858.0,STARLINK-4198,PAYLOAD,2022-10-18 08:00:01,15.08850036,0.000158,53.2156,183.3123,52.4408,318.9345,-0.0011371999999999,-0.00018346,0.0,0 STARLINK-4198,1 52858U 22062AE  22291.33334491 -.00018346  00000-0 -11372-2 0  9996,2 52858  53.2156 183.3123 0001580  52.4408 318.9345 15.08850036 19469,6917.85,95.437,540.808,538.622,0.0
52858.0,STARLINK-4198,PAYLOAD,2022-10-18 14:00:01,15.08829966,0.0001481,53.2157,182.189,60.0501,230.0309,0.0018262999999999,0.00028889,0.0,0 STARLINK-4198,1 52858U 22062AE  22291.58334491  .00028889  00000-0  18263-2 0  9990,2 52858  53.2157 182.1890 0001481  60.0501 230.0309 15.08829966  1303,6917.911,95.438,540.8009999999998,538.752,0.0
52858.0,STARLINK-4198,PAYLOAD,2022-10-18 22:00:00,15.08834967,0.0001664,53.2158,180.694,57.1264,244.5463,-0.00090814,-0.0001471,0.0,0 STARLINK-4198,1 52858U 22062AE  22291.91667824 -.00014710  00000-0 -90814-3 0  9999,2 52858  53.2158 180.6940 0001664  57.1264 244.5463 15.08834967  1307,6917.896,95.438,540.9119999999998,538.61,0.0
52858.0,STARLINK-4198,PAYLOAD,2022-10-19 08:00:01,15.08863202,0.0001617,53.2156,178.8232,55.6908,350.4575,-0.0043472,-0.00068857,0.0,0 STARLINK-4198,1 52858U 22062AE  22292.33334491 -.00068857  00000-0 -43472-2 0  9995,2 52858  53.2156 178.8232 0001617  55.6908 350.4575 15.08863202 19612,6917.809,95.436,540.793,538.556,0.0
52858.0,STARLINK-4198,PAYLOAD,2022-10-19 14:00:01,15.08798759,0.0001462,53.2156,177.7,61.7826,263.0734,0.0033799,0.00053853,0.0,0 STARLINK-4198,1 52858U 22062AE  22292.58334491  .00053853  00000-0  33799-2 0  9991,2 52858  53.2156 177.7000 0001462  61.7826 263.0734 15.08798759  1305,6918.005999999999,95.44,540.883,538.86,0.0
52858.0,STARLINK-4198,PAYLOAD,2022-10-19 22:00:00,15.08838378,0.0001659,53.2168,176.2046,57.0782,279.3632,-0.001838,-0.0002942,0.0,0 STARLINK-4198,1 52858U 22062AE  22292.91667824 -.00029420  00000-0 -18380-2 0  9991,2 52858  53.2168 176.2046 0001659  57.0782 279.3632 15.08838378 19701,6917.885,95.438,540.898,538.6030000000002,0.0
52858.0,STARLINK-4198,PAYLOAD,2022-10-20 14:00:01,15.08832943,0.0001534,53.2154,173.2107,64.472,295.1451,0.0011923,0.00018735,0.0,0 STARLINK-4198,1 52858U 22062AE  22293.58334491  .00018735  00000-0  11923-2 0  9997,2 52858  53.2154 173.2107 0001534  64.4720 295.1451 15.08832943  1301,6917.901999999999,95.438,540.828,538.706,0.0
52858.0,STARLINK-4198,PAYLOAD,2022-10-20 22:00:00,15.08830924,0.000175,53.2158,171.7165,59.982,311.23,-0.0008491,-0.00013773,0.0,0 STARLINK-4198,1 52858U 22062AE  22293.91667824 -.00013773  00000-0 -84910-3 0  9999,2 52858  53.2158 171.7165 0001750  59.9820 311.2300 15.08830924  1302,6917.908,95.438,540.984,538.562,0.0
52858.0,STARLINK-4198,PAYLOAD,2022-10-21 06:00:00,15.08845141,0.0001745,53.2153,170.2194,57.4072,325.3838,-0.00083436,-0.00013544,0.0,0 STARLINK-4198,1 52858U 22062AE  22294.25001157 -.00013544  00000-0 -83436-3 0  9996,2 52858  53.2153 170.2194 0001745  57.4072 325.3838 15.08845141 19903,6917.865,95.437,540.937,538.523,0.0
52858.0,STARLINK-4198,PAYLOAD,2022-10-21 14:00:01,15.08819859,0.0001661,53.2152,168.7216,66.2669,328.1194,0.0032007,0.00050992,0.0,0 STARLINK-4198,1 52858U 22062AE  22294.58334491  .00050992  00000-0  32007-2 0  9995,2 52858  53.2152 168.7216 0001661  66.2669 328.1194 15.08819859  1304,6917.941999999999,95.439,540.956,538.658,0.0
52858.0,STARLINK-4198,PAYLOAD,2022-10-21 22:00:00,15.08854183,0.000179,53.2151,167.2272,59.4718,346.5114,-0.0030803,-0.00048997,0.0,0 STARLINK-4198,1 52858U 22062AE  22294.91667824 -.00048997  00000-0 -30803-2 0  9997,2 52858  53.2151 167.2272 0001790  59.4718 346.5114 15.08854183  1306,6917.837,95.437,540.94,538.464,0.0
52858.0,STARLINK-4198,PAYLOAD,2022-10-22 08:00:01,15.08844258,0.0001686999999999,53.2152,165.3559,59.1917,91.2749,-0.0013476,-0.00021674,0.0,0 STARLINK-4198,1 52858U 22062AE  22295.33334491 -.00021674  00000-0 -13476-2 0  9995,2 52858  53.2152 165.3559 0001687  59.1917  91.2749 15.08844258 20072,6917.8669999999975,95.437,540.899,538.565,0.0
52858.0,STARLINK-4198,PAYLOAD,2022-10-22 14:00:01,15.08821638,0.000168,53.2151,164.2327,63.9157,5.2494,0.0028848,0.000459,0.0,0 STARLINK-4198,1 52858U 22062AE  22295.58334491  .00045900  00000-0  28848-2 0  9997,2 52858  53.2151 164.2327 0001680  63.9157   5.2494 15.08821638  1308,6917.937,95.439,540.964,538.639,0.0
52858.0,STARLINK-4198,PAYLOAD,2022-10-22 22:00:00,15.08855497,0.0001829,53.2151,162.738,58.4517,22.3104,-0.00010064,-1.89e-05,0.0,0 STARLINK-4198,1 52858U 22062AE  22295.91667824 -.00001890  00000-0 -10064-3 0  9997,2 52858  53.2151 162.7380 0001829  58.4517  22.3104 15.08855497  1302,6917.833000000001,95.437,540.9630000000002,538.433,0.0
52858.0,STARLINK-4198,PAYLOAD,2022-10-23 00:00:02,15.08842872,0.000184,53.2153,162.3642,56.7394,116.9923,0.0018742999999999,0.0002967,0.0,0 STARLINK-4198,1 52858U 22062AE  22296.00002315  .00029670  00000-0  18743-2 0  9991,2 52858  53.2153 162.3642 0001840  56.7394 116.9923 15.08842872 20176,6917.871999999999,95.437,541.009,538.464,0.0
52858.0,STARLINK-4198,PAYLOAD,2022-10-23 14:00:01,15.08836035,0.0001634,53.2154,159.7433,62.12,41.8811,0.0025186999999999,0.00040021,0.0,0 STARLINK-4198,1 52858U 22062AE  22296.58334491  .00040021  00000-0  25187-2 0  9990,2 52858  53.2154 159.7433 0001634  62.1200  41.8811 15.08836035 20258,6917.893,95.438,540.888,538.627,0.0
52858.0,STARLINK-4198,PAYLOAD,2022-10-23 22:00:00,15.08860128,0.0001733,53.2153,158.2486,55.2066,60.4008,-0.0034233,-0.00054389,0.0,0 STARLINK-4198,1 52858U 22062AE  22296.91667824 -.00054389  00000-0 -34233-2 0  9992,2 52858  53.2153 158.2486 0001733  55.2066  60.4008 15.08860128 20303,6917.819,95.436,540.883,538.485,0.0
52858.0,STARLINK-4198,PAYLOAD,2022-10-24 14:00:01,15.08776416,0.00016,53.2155,155.254,61.2227,77.5528,0.0019897,0.00031465,0.0,0 STARLINK-4198,1 52858U 22062AE  22297.58334491  .00031465  00000-0  19897-2 0  9994,2 52858  53.2155 155.2540 0001600  61.2227  77.5528 15.08776416  1303,6918.075,95.442,541.047,538.8330000000002,0.0
52858.0,STARLINK-4198,PAYLOAD,2022-10-24 22:00:00,15.08785958,0.0001718,53.2153,153.7595,54.2176,96.0895,0.0026843,0.00042628,0.0,0 STARLINK-4198,1 52858U 22062AE  22297.91667824  .00042628  00000-0  26843-2 0  9992,2 52858  53.2153 153.7595 0001718  54.2176  96.0895 15.08785958  1303,6918.045999999999,95.441,541.099,538.722,0.0
52858.0,STARLINK-4198,PAYLOAD,2022-10-25 00:00:00,15.08784574,0.0001733999999999,53.2154,153.3857,52.4116,190.7816,0.0039701,0.00063368,0.0,0 STARLINK-4198,1 52858U 22062AE  22298.00001157  .00063368  00000-0  39701-2 0  9995,2 52858  53.2154 153.3857 0001734  52.4116 190.7816 15.08784574 20470,6918.05,95.441,541.114,538.715,0.0
52858.0,STARLINK-4198,PAYLOAD,2022-10-25 14:00:01,15.08822386,0.0001551,53.2153,150.765,61.4432,111.9861,0.0014065,0.00022157,0.0,0 STARLINK-4198,1 52858U 22062AE  22298.58334491  .00022157  00000-0  14065-2 0  9995,2 52858  53.2153 150.7650 0001551  61.4432 111.9861 15.08822386  1309,6917.934,95.439,540.872,538.726,0.0
52858.0,STARLINK-4198,PAYLOAD,2022-10-25 22:00:01,15.08826719,0.0001698,53.215,149.2702,54.1659,130.9126,0.00039515,6.004e-05,0.0,0 STARLINK-4198,1 52858U 22062AE  22298.91668981  .00006004  00000-0  39515-3 0  9997,2 52858  53.2150 149.2702 0001698  54.1659 130.9126 15.08826719  1308,6917.920999999999,95.438,540.961,538.611,0.0
